{
    "links": {
        "self": "http://www.neowsapp.com/rest/v1/neo/3690058?api_key=iIulBulltgU6a56xZRHN4H3l9WmuAYTsLGpBGhQ2"
    },
    "id": "3690058",
    "neo_reference_id": "3690058",
    "name": "(2014 SU143)",
    "designation": "2014 SU143",
    "nasa_jpl_url": "http://ssd.jpl.nasa.gov/sbdb.cgi?sstr=3690058",
    "absolute_magnitude_h": 25.3,
    "estimated_diameter": {
        "kilometers": {
            "estimated_diameter_min": 0.0231502122,
            "estimated_diameter_max": 0.0517654482
        },
        "meters": {
            "estimated_diameter_min": 23.150212221,
            "estimated_diameter_max": 51.7654482198
        },
        "miles": {
            "estimated_diameter_min": 0.0143848705,
            "estimated_diameter_max": 0.0321655483
        },
        "feet": {
            "estimated_diameter_min": 75.9521422633,
            "estimated_diameter_max": 169.8341531374
        }
    },
    "is_potentially_hazardous_asteroid": false,
    "close_approach_data": [
        {
            "close_approach_date": "2014-09-15",
            "close_approach_date_full": "2014-Sep-15 01:15",
            "epoch_date_close_approach": 1410743700000,
            "relative_velocity": {
                "kilometers_per_second": "6.4201770457",
                "kilometers_per_hour": "23112.6373643643",
                "miles_per_hour": "14361.2940334296"
            },
            "miss_distance": {
                "astronomical": "0.0973511658",
                "lunar": "37.8696034962",
                "kilometers": "14563527.045696846",
                "miles": "9049356.0819786348"
            },
            "orbiting_body": "Earth"
        }
    ],
    "orbital_data": {
        "orbit_id": "6",
        "orbit_determination_date": "2017-04-06 08:38:32",
        "first_observation_date": "2014-09-20",
        "last_observation_date": "2014-10-26",
        "data_arc_in_days": 36,
        "observations_used": 15,
        "orbit_uncertainty": "8",
        "minimum_orbit_intersection": ".095969",
        "jupiter_tisserand_invariant": "3.221",
        "epoch_osculation": "2456922.5",
        "eccentricity": ".5609827105324311",
        "semi_major_axis": "2.506961132288822",
        "inclination": "4.593512794969431",
        "ascending_node_longitude": ".2024367065781433",
        "orbital_period": "1449.839167233479",
        "perihelion_distance": "1.100599281097986",
        "perihelion_argument": "355.4397418863649",
        "aphelion_distance": "3.913322983479659",
        "perihelion_time": "2456918.208827307497",
        "mean_anomaly": "1.065512785289725",
        "mean_motion": ".2483034036712752",
        "equinox": "J2000",
        "orbit_class": {
            "orbit_class_type": "AMO",
            "orbit_class_description": "Near-Earth asteroid orbits similar to that of 1221 Amor",
            "orbit_class_range": "1.017 AU < q (perihelion) < 1.3 AU"
        }
    },
    "is_sentry_object": false
}